ONEWEB-0264             
1 48982U 21060R   23309.81422710 -.00000059  00000+0 -18893-3 0  9999
2 48982  87.9083  58.7281 0001615  99.8957 260.2356 13.16595559114019
ONEWEB-0266             
1 48984U 21060T   23309.83638124  .00000214  00000+0  52719-3 0  9997
2 48984  87.9082  58.7085 0001569 105.7101 254.4203 13.16593331114009
ONEWEB-0267             
1 48985U 21060U   23309.84695060  .00002113  00000+0  54939-2 0  9996
2 48985  87.9079  58.7074 0001857  84.5693 275.5650 13.16583841114010
ONEWEB-0268             
1 48986U 21060V   23309.81526876  .00000030  00000+0  44485-4 0  9995
2 48986  87.9081  58.7173 0001614  98.3320 261.7994 13.16590020114278
ONEWEB-0269             
1 48987U 21060W   23309.87226369  .00000086  00000+0  19111-3 0  9994
2 48987  87.9079  58.7332 0001709 101.5689 258.5634 13.16592262114054
ONEWEB-0270             
1 48988U 21060X   23309.81316350  .00000015  00000+0  47183-5 0  9993
2 48988  87.9079  58.7303 0000980  90.0836 270.0407 13.16593888114084
ONEWEB-0271             
1 48989U 21060Y   23309.80049724 -.00000055  00000+0 -17805-3 0  9993
2 48989  87.9077  58.7081 0001368  85.6806 274.4481 13.16594731114082
ONEWEB-0272             
1 48990U 21060Z   23309.82372680  .00000002  00000+0 -29651-4 0  9991
2 48990  87.9081  58.7286 0001455  90.8203 269.3094 13.16593228114030
